[{"OBJECT_NAME":"STARLINK-5599","OBJECT_ID":"2023-028AB","EPOCH":"2026-03-09T19:52:09.580224","MEAN_MOTION":14.98323956,"ECCENTRICITY":0.00030597,"INCLINATION":69.9999,"RA_OF_ASC_NODE":224.1123,"ARG_OF_PERICENTER":269.3112,"MEAN_ANOMALY":90.7696,"EPHEMERIS_TYPE":0,"CLASSIFICATION_TYPE":"U","NORAD_CAT_ID":55766,"ELEMENT_SET_NO":999,"REV_AT_EPOCH":16655,"BSTAR":-0.00012890269,"MEAN_MOTION_DOT":-1.63e-5,"MEAN_MOTION_DDOT":0},{"OBJECT_NAME":"PEGASUS R\/B","OBJECT_ID":"1994-029B","EPOCH":"2026-03-09T21:33:12.048768","MEAN_MOTION":14.76408324,"ECCENTRICITY":0.01139603,"INCLINATION":81.9597,"RA_OF_ASC_NODE":359.0956,"ARG_OF_PERICENTER":87.6383,"MEAN_ANOMALY":273.7868,"EPHEMERIS_TYPE":0,"CLASSIFICATION_TYPE":"U","NORAD_CAT_ID":23106,"ELEMENT_SET_NO":999,"REV_AT_EPOCH":70062,"BSTAR":0.00028197274,"MEAN_MOTION_DOT":2.205e-5,"MEAN_MOTION_DDOT":0}]
